ONEWEB-0187             
1 48221U 21031M   23059.32564387 -.00000164  00000+0 -47735-3 0  9992
2 48221  87.9135 169.3968 0001903 111.1162 249.0171 13.14507535 89971
ONEWEB-0187             
1 48221U 21031M   23059.85846832 -.00000320  00000+0 -89750-3 0  9995
2 48221  87.9133 169.2913 0001931 110.6007 249.5330 13.14506479 90049
ONEWEB-0187             
1 48221U 21031M   23060.84799657 -.00000104  00000+0 -31405-3 0  9992
2 48221  87.9133 169.0960 0001912 109.9979 250.1357 13.14506586 90177
ONEWEB-0187             
1 48221U 21031M   23061.00023079  .00000043  00000+0  82816-4 0  9992
2 48221  87.9133 169.0659 0001911 109.7262 250.4074 13.14507462 90199
ONEWEB-0187             
1 48221U 21031M   23061.38081866 -.00000005  00000+0 -47777-4 0  9998
2 48221  87.9132 168.9907 0001920 109.3431 250.7906 13.14507994 90249
ONEWEB-0187             
1 48221U 21031M   23062.29422987  .00000179  00000+0  44933-3 0  9992
2 48221  87.9130 168.8101 0001885 108.1634 251.9701 13.14507940 90364
